SL-16 R/B               
1 25407U 98045B   26083.19419086 -.00000158  00000+0 -55582-4 0  9995
2 25407  71.0114 151.0738 0007737 345.1441  14.9454 14.16195353429151
ISS (ZARYA)             
1 25544U 98067A   26083.16360592  .00014170  00000+0  26927-3 0  9992
2 25544  51.6345   0.8084 0006267 226.2093 133.8378 15.48514008558570
CZ-4B R/B               
1 25732U 99025C   26083.12799251  .00000028  00000+0  34415-4 0  9999
2 25732  98.6598 127.0657 0036126 304.3025 117.5315 14.18268057390219
OKEAN-O                 
1 25860U 99039A   26083.18443641  .00000700  00000+0  98649-4 0  9997
2 25860  97.9412 142.9265 0000918  83.2794 276.8523 14.80357799436532
SL-16 R/B               
1 25861U 99039B   26083.15067408  .00000604  00000+0  83329-4 0  9990
2 25861  97.9935 142.2236 0014200 205.7667 154.2840 14.81750494439009
DELTA 2 R/B             
1 25876U 99041E   26082.74165472  .00000486  00000+0  11788-3 0  9990
2 25876  51.7605 245.1476 0502617  29.8785 332.9857 14.11869343365015
HELIOS 1B               
1 25977U 99064A   26083.17422753  .00001752  00000+0  19852-3 0  9990
2 25977  98.1679 345.8422 0002032  55.2095 304.9311 14.87752370687414
TERRA                   
1 25994U 99068A   26083.23617216  .00000478  00000+0  10636-3 0  9995
2 25994  97.9563 136.1130 0003440 120.7471 310.2015 14.61029624397206
SL-16 R/B               
1 26070U 00006B   26083.21340301  .00000171  00000+0  11094-3 0  9990
2 26070  71.0010  67.2956 0016008 167.2572 192.8959 14.15824404350617
TITAN 4B R/B            
1 26474U 00047B   26083.27261456  .00004159  00000+0  26104-3 0  9990
2 26474  67.9913 359.5010 0039650  18.3388 341.9180 15.09698172395110
ENVISAT                 
1 27386U 02009A   26083.13439241  .00000118  00000+0  52068-4 0  9997
2 27386  98.3752  36.3899 0001247  81.4598 289.8813 14.39041696261257
IDEFIX & ARIANE 42P R/B 
1 27422U 02021B   26083.10908623  .00000271  00000+0  11945-3 0  9992
2 27422  98.5886  21.5443 0012397 140.5039 219.7049 14.31035409246088
